[{"OBJECT_NAME":"STARLINK-4386","OBJECT_ID":"2022-105B","EPOCH":"2026-03-09T15:28:07.769568","MEAN_MOTION":15.05650293,"ECCENTRICITY":0.0002183,"INCLINATION":97.6023,"RA_OF_ASC_NODE":311.223,"ARG_OF_PERICENTER":74.0252,"MEAN_ANOMALY":286.1215,"EPHEMERIS_TYPE":0,"CLASSIFICATION_TYPE":"U","NORAD_CAT_ID":53649,"ELEMENT_SET_NO":999,"REV_AT_EPOCH":19329,"BSTAR":-1.5178e-5,"MEAN_MOTION_DOT":-2.8e-6,"MEAN_MOTION_DDOT":0},{"OBJECT_NAME":"FENGYUN 1C DEB","OBJECT_ID":"1999-025AFM","EPOCH":"2026-03-09T00:10:59.422080","MEAN_MOTION":14.62656122,"ECCENTRICITY":0.01859131,"INCLINATION":98.0774,"RA_OF_ASC_NODE":85.1868,"ARG_OF_PERICENTER":297.7723,"MEAN_ANOMALY":114.9924,"EPHEMERIS_TYPE":0,"CLASSIFICATION_TYPE":"U","NORAD_CAT_ID":30450,"ELEMENT_SET_NO":999,"REV_AT_EPOCH":797,"BSTAR":0.00091047967,"MEAN_MOTION_DOT":5.887e-5,"MEAN_MOTION_DDOT":0}]
